UNKNOWN                 
1 89161U          26079.34553192  .01120648  57617-3  31768-2 0  9999
2 89161  97.6294 106.9899 0009475 106.8536 253.3777 15.93413522563766
